ORBCOMM FM24            
1 25478U 98053D   25125.16500922  .00001610  00000+0  57388-3 0  9992
2 25478  45.0062 113.0662 0003426 329.3042  30.7605 14.37996314391531
ORBCOMM FM25            
1 25479U 98053E   25124.64928452  .00001766  00000+0  62552-3 0  9998
2 25479  45.0054 113.7765 0004869 355.8350   4.2457 14.37969809391475
ORBCOMM FM26            
1 25480U 98053F   25125.32773492  .00001382  00000+0  50868-3 0  9999
2 25480  45.0059 106.7126 0005717  26.3626 333.7511 14.37049435391581
ORBCOMM FM27            
1 25481U 98053G   25125.33255200  .00001667  00000+0  59263-3 0  9997
2 25481  45.0042 110.7558 0002450 310.3435  49.7199 14.37997326391546
ORBCOMM FM28            
1 25482U 98053H   25124.82035183  .00001592  00000+0  56584-3 0  9997
2 25482  45.0059  50.7489 0004153  58.5531 301.5723 14.38203116392115
ORBCOMM FM30            
1 25980U 99065A   25125.53113314  .00001388  00000+0  50923-3 0  9990
2 25980  45.0318 291.6083 0007165 157.5750 202.5413 14.37218379328842
ORBCOMM FM31            
1 25981U 99065B   25124.80751006  .00001469  00000+0  53679-3 0  9997
2 25981  45.0231 288.5336 0004666 177.7645 182.3225 14.37163522327768
ORBCOMM FM32            
1 25982U 99065C   25124.82507604  .00001508  00000+0  56026-3 0  9996
2 25982  45.0162 304.7359 0006672 171.3851 188.7112 14.36200620328368
